start=new Date('2022-10-12T00:00:00.000Z').valueOf();
sats=[{"RCS_SIZE":"LARGE","EPOCH":"2022-10-11T19:38:06.463968","BSTAR":"-0.00018842000000","PERIOD":"95.438","OBJECT_NAME":"STARLINK-3593","RA_OF_ASC_NODE":"187.5615","TLE_LINE2":"2 51896  53.2183 187.5615 0001973  67.5889 292.5312 15.08825135 35368","EPHEMERIS_TYPE":"0","INCLINATION":"53.2183","COUNTRY_CODE":"US","ELEMENT_SET_NO":"999","NORAD_CAT_ID":"51896","ARG_OF_PERICENTER":"67.5889","REF_FRAME":"TEME","CENTER_NAME":"EARTH","CLASSIFICATION_TYPE":"U","MEAN_ANOMALY":"292.5312","OBJECT_TYPE":"PAYLOAD","APOAPSIS":"541.156","LAUNCH_DATE":"2022-03-03","PERIAPSIS":"538.426","FILE":"3604077","ECCENTRICITY":"0.00019730","SITE":"AFETR","MEAN_MOTION":"15.08825135","OBJECT_ID":"2022-022AW","REV_AT_EPOCH":"3536","MEAN_MOTION_DDOT":"0.0000000000000","SEMIMAJOR_AXIS":"6917.926","MEAN_ELEMENT_THEORY":"SGP4","DECAY_DATE":null,"GP_ID":"214793966","TLE_LINE1":"1 51896U 22022AW  22284.81813037 -.00003284  00000-0 -18842-3 0  9991","MEAN_MOTION_DOT":"-0.00003284","TIME_SYSTEM":"UTC"},{"FILE":"3603543","PERIAPSIS":"538.702","LAUNCH_DATE":"2022-03-03","APOAPSIS":"540.867","REV_AT_EPOCH":"3521","OBJECT_ID":"2022-022AX","MEAN_MOTION":"15.08827291","SITE":"AFETR","ECCENTRICITY":"0.00015650","MEAN_MOTION_DDOT":"0.0000000000000","MEAN_ELEMENT_THEORY":"SGP4","SEMIMAJOR_AXIS":"6917.919","GP_ID":"214783101","TLE_LINE1":"1 51897U 22022AX  22284.15109780 -.00000179  00000-0  68520-5 0  9991","DECAY_DATE":null,"TIME_SYSTEM":"UTC","MEAN_MOTION_DOT":"-0.00000179","EPOCH":"2022-10-11T03:37:34.849920","RCS_SIZE":"LARGE","RA_OF_ASC_NODE":"190.5668","OBJECT_NAME":"STARLINK-3598","PERIOD":"95.438","BSTAR":"0.00000685200000","COUNTRY_CODE":"US","INCLINATION":"53.2199","TLE_LINE2":"2 51897  53.2199 190.5668 0001565  66.2174 293.8982 15.08827291 35214","EPHEMERIS_TYPE":"0","ARG_OF_PERICENTER":"66.2174","NORAD_CAT_ID":"51897","ELEMENT_SET_NO":"999","CLASSIFICATION_TYPE":"U","REF_FRAME":"TEME","CENTER_NAME":"EARTH","MEAN_ANOMALY":"293.8982","OBJECT_TYPE":"PAYLOAD"},{"FILE":"3604484","PERIAPSIS":"538.712","LAUNCH_DATE":"2022-03-03","APOAPSIS":"540.782","OBJECT_ID":"2022-022AY","MEAN_MOTION":"15.08839480","REV_AT_EPOCH":"3535","ECCENTRICITY":"0.00014960","SITE":"AFETR","MEAN_MOTION_DDOT":"0.0000000000000","MEAN_ELEMENT_THEORY":"SGP4","SEMIMAJOR_AXIS":"6917.882","GP_ID":"214823324","TLE_LINE1":"1 51898U 22022AY  22284.74357077  .00000824  00000-0  69862-4 0  9996","DECAY_DATE":null,"MEAN_MOTION_DOT":"0.00000824","TIME_SYSTEM":"UTC","EPOCH":"2022-10-11T17:50:44.514528","RCS_SIZE":"LARGE","OBJECT_NAME":"STARLINK-3597","RA_OF_ASC_NODE":"187.9048","BSTAR":"0.00006986200000","PERIOD":"95.438","COUNTRY_CODE":"US","TLE_LINE2":"2 51898  53.2187 187.9048 0001496  64.8600 295.2547 15.08839480 35356","EPHEMERIS_TYPE":"0","INCLINATION":"53.2187","ARG_OF_PERICENTER":"64.8600","ELEMENT_SET_NO":"999","NORAD_CAT_ID":"51898","CENTER_NAME":"EARTH","REF_FRAME":"TEME","CLASSIFICATION_TYPE":"U","MEAN_ANOMALY":"295.2547","OBJECT_TYPE":"PAYLOAD"},{"SEMIMAJOR_AXIS":"6917.824","MEAN_ELEMENT_THEORY":"SGP4","MEAN_MOTION_DDOT":"0.0000000000000","MEAN_MOTION_DOT":"0.00006523","TIME_SYSTEM":"UTC","DECAY_DATE":null,"TLE_LINE1":"1 51956U 22025A   22284.23663701  .00006523  00000-0  42734-3 0  9992","GP_ID":"214782854","SITE":"AFETR","ECCENTRICITY":"0.00020110","OBJECT_ID":"2022-025A","MEAN_MOTION":"15.08858538","REV_AT_EPOCH":"3317","LAUNCH_DATE":"2022-03-09","PERIAPSIS":"538.298","APOAPSIS":"541.080","FILE":"3603543","CLASSIFICATION_TYPE":"U","CENTER_NAME":"EARTH","REF_FRAME":"TEME","NORAD_CAT_ID":"51956","ELEMENT_SET_NO":"999","ARG_OF_PERICENTER":"47.4042","OBJECT_TYPE":"PAYLOAD","MEAN_ANOMALY":"312.7119","RCS_SIZE":"LARGE","EPOCH":"2022-10-11T05:40:45.437664","INCLINATION":"53.2163","EPHEMERIS_TYPE":"0","TLE_LINE2":"2 51956  53.2163 220.1782 0002011  47.4042 312.7119 15.08858538 33174","COUNTRY_CODE":"US","PERIOD":"95.436","BSTAR":"0.00042734000000","RA_OF_ASC_NODE":"220.1782","OBJECT_NAME":"STARLINK-3700"},{"DECAY_DATE":null,"TLE_LINE1":"1 51957U 22025B   22284.81444498 -.00002238  00000-0 -12270-3 0  9990","GP_ID":"214823577","MEAN_MOTION_DOT":"-0.00002238","TIME_SYSTEM":"UTC","MEAN_MOTION_DDOT":"0.0000000000000","SEMIMAJOR_AXIS":"6917.981","MEAN_ELEMENT_THEORY":"SGP4","LAUNCH_DATE":"2022-03-09","APOAPSIS":"540.972","PERIAPSIS":"538.720","FILE":"3604484","ECCENTRICITY":"0.00016280","SITE":"AFETR","OBJECT_ID":"2022-025B","REV_AT_EPOCH":"3326","MEAN_MOTION":"15.08807154","MEAN_ANOMALY":"298.3957","OBJECT_TYPE":"PAYLOAD","ELEMENT_SET_NO":"999","NORAD_CAT_ID":"51957","ARG_OF_PERICENTER":"61.7199","REF_FRAME":"TEME","CENTER_NAME":"EARTH","CLASSIFICATION_TYPE":"U","BSTAR":"-0.00012270000000","PERIOD":"95.440","OBJECT_NAME":"STARLINK-3694","RA_OF_ASC_NODE":"217.5814","EPHEMERIS_TYPE":"0","TLE_LINE2":"2 51957  53.2174 217.5814 0001628  61.7199 298.3957 15.08807154 33265","INCLINATION":"53.2174","COUNTRY_CODE":"US","RCS_SIZE":"LARGE","EPOCH":"2022-10-11T19:32:48.046272"},{"FILE":"3604484","PERIAPSIS":"538.711","LAUNCH_DATE":"2022-03-09","APOAPSIS":"540.904","REV_AT_EPOCH":"3326","OBJECT_ID":"2022-025C","MEAN_MOTION":"15.08819655","SITE":"AFETR","ECCENTRICITY":"0.00015850","TLE_LINE1":"1 51958U 22025C   22284.82913279 -.00005299  00000-0 -31526-3 0  9995","GP_ID":"214823829","DECAY_DATE":null,"TIME_SYSTEM":"UTC","MEAN_MOTION_DOT":"-0.00005299","MEAN_MOTION_DDOT":"0.0000000000000","MEAN_ELEMENT_THEORY":"SGP4","SEMIMAJOR_AXIS":"6917.943","RA_OF_ASC_NODE":"217.5259","OBJECT_NAME":"STARLINK-3692","PERIOD":"95.439","BSTAR":"-0.00031526000000","COUNTRY_CODE":"US","INCLINATION":"53.2151","TLE_LINE2":"2 51958  53.2151 217.5259 0001585  56.9971 303.1173 15.08819655 33264","EPHEMERIS_TYPE":"0","EPOCH":"2022-10-11T19:53:57.073056","RCS_SIZE":"LARGE","MEAN_ANOMALY":"303.1173","OBJECT_TYPE":"PAYLOAD","ARG_OF_PERICENTER":"56.9971","NORAD_CAT_ID":"51958","ELEMENT_SET_NO":"999","CLASSIFICATION_TYPE":"U","REF_FRAME":"TEME","CENTER_NAME":"EARTH"},{"DECAY_DATE":null,"TLE_LINE1":"1 51959U 22025D   22284.81810728 -.00003250  00000-0 -18627-3 0  9992","GP_ID":"214824579","TIME_SYSTEM":"UTC","MEAN_MOTION_DOT":"-0.00003250","MEAN_MOTION_DDOT":"0.0000000000000","SEMIMAJOR_AXIS":"6917.947","MEAN_ELEMENT_THEORY":"SGP4","APOAPSIS":"541.077","LAUNCH_DATE":"2022-03-09","PERIAPSIS":"538.547","FILE":"3604484","ECCENTRICITY":"0.00018290","SITE":"AFETR","REV_AT_EPOCH":"3326","OBJECT_ID":"2022-025D","MEAN_MOTION":"15.08818263","MEAN_ANOMALY":"307.0601","OBJECT_TYPE":"PAYLOAD","ELEMENT_SET_NO":"999","NORAD_CAT_ID":"51959","ARG_OF_PERICENTER":"53.0558","CENTER_NAME":"EARTH","REF_FRAME":"TEME","CLASSIFICATION_TYPE":"U","BSTAR":"-0.00018627000000","PERIOD":"95.439","OBJECT_NAME":"STARLINK-3704","RA_OF_ASC_NODE":"217.5595","TLE_LINE2":"2 51959  53.2157 217.5595 0001829  53.0558 307.0601 15.08818263 33267","EPHEMERIS_TYPE":"0","INCLINATION":"53.2157","COUNTRY_CODE":"US","RCS_SIZE":"LARGE","EPOCH":"2022-10-11T19:38:04.468992"},{"ECCENTRICITY":"0.00017660","SITE":"AFETR","MEAN_MOTION":"15.08820236","REV_AT_EPOCH":"3326","OBJECT_ID":"2022-025E","LAUNCH_DATE":"2022-03-09","APOAPSIS":"541.028","PERIAPSIS":"538.584","FILE":"3604484","MEAN_MOTION_DOT":"-0.00003205","TIME_SYSTEM":"UTC","DECAY_DATE":null,"TLE_LINE1":"1 51960U 22025E   22284.81074129 -.00003205  00000-0 -18344-3 0  9997","GP_ID":"214823327","SEMIMAJOR_AXIS":"6917.941","MEAN_ELEMENT_THEORY":"SGP4","MEAN_MOTION_DDOT":"0.0000000000000","EPHEMERIS_TYPE":"0","TLE_LINE2":"2 51960  53.2172 217.5948 0001766  50.4151 309.6997 15.08820236 33267","INCLINATION":"53.2172","COUNTRY_CODE":"US","BSTAR":"-0.00018344000000","PERIOD":"95.439","OBJECT_NAME":"STARLINK-3691","RA_OF_ASC_NODE":"217.5948","RCS_SIZE":"LARGE","EPOCH":"2022-10-11T19:27:28.047456","OBJECT_TYPE":"PAYLOAD","MEAN_ANOMALY":"309.6997","REF_FRAME":"TEME","CENTER_NAME":"EARTH","CLASSIFICATION_TYPE":"U","ELEMENT_SET_NO":"999","NORAD_CAT_ID":"51960","ARG_OF_PERICENTER":"50.4151"},{"ELEMENT_SET_NO":"999","NORAD_CAT_ID":"51961","ARG_OF_PERICENTER":"46.3681","CENTER_NAME":"EARTH","REF_FRAME":"TEME","CLASSIFICATION_TYPE":"U","MEAN_ANOMALY":"313.7450","OBJECT_TYPE":"PAYLOAD","RCS_SIZE":"LARGE","EPOCH":"2022-10-11T18:13:17.999040","BSTAR":"-0.00023365000000","PERIOD":"95.439","OBJECT_NAME":"STARLINK-3689","RA_OF_ASC_NODE":"217.8368","TLE_LINE2":"2 51961  53.2179 217.8368 0001683  46.3681 313.7450 15.08817087 33253","EPHEMERIS_TYPE":"0","INCLINATION":"53.2179","COUNTRY_CODE":"US","MEAN_MOTION_DDOT":"0.0000000000000","SEMIMAJOR_AXIS":"6917.950","MEAN_ELEMENT_THEORY":"SGP4","DECAY_DATE":null,"TLE_LINE1":"1 51961U 22025F   22284.75923610 -.00004002  00000-0 -23365-3 0  9994","GP_ID":"214823078","TIME_SYSTEM":"UTC","MEAN_MOTION_DOT":"-0.00004002","APOAPSIS":"540.980","LAUNCH_DATE":"2022-03-09","PERIAPSIS":"538.651","FILE":"3604484","ECCENTRICITY":"0.00016830","SITE":"AFETR","REV_AT_EPOCH":"3325","OBJECT_ID":"2022-025F","MEAN_MOTION":"15.08817087"},{"TIME_SYSTEM":"UTC","MEAN_MOTION_DOT":"0.00000348","TLE_LINE1":"1 51962U 22025G   22284.80432069  .00000348  00000-0  39988-4 0  9990","GP_ID":"214824329","DECAY_DATE":null,"MEAN_ELEMENT_THEORY":"SGP4","SEMIMAJOR_AXIS":"6917.865","MEAN_MOTION_DDOT":"0.0000000000000","REV_AT_EPOCH":"3326","MEAN_MOTION":"15.08844921","OBJECT_ID":"2022-025G","ECCENTRICITY":"0.00020070","SITE":"AFETR","FILE":"3604484","LAUNCH_DATE":"2022-03-09","PERIAPSIS":"538.342","APOAPSIS":"541.119","OBJECT_TYPE":"PAYLOAD","MEAN_ANOMALY":"316.7665","CENTER_NAME":"EARTH","REF_FRAME":"TEME","CLASSIFICATION_TYPE":"U","ARG_OF_PERICENTER":"43.3485","ELEMENT_SET_NO":"999","NORAD_CAT_ID":"51962","COUNTRY_CODE":"US","EPHEMERIS_TYPE":"0","TLE_LINE2":"2 51962  53.2185 217.6342 0002007  43.3485 316.7665 15.08844921 33260","INCLINATION":"53.2185","OBJECT_NAME":"STARLINK-3697","RA_OF_ASC_NODE":"217.6342","BSTAR":"0.00003998800000","PERIOD":"95.437","EPOCH":"2022-10-11T19:18:13.307616","RCS_SIZE":"LARGE"}];
